{
  "type": "FeatureCollection",
  "features": [
    {
      "type": "Feature",
      "properties": {
        "norad_id": 29486,
        "name": "GPS BIIRM-2 (PRN 31)",
        "group": "gps-ops",
        "lat": -5.928426327348822,
        "lon": 153.94798387641964,
        "alt_km": 20037.507142952534,
        "timestamp": "2025-12-26T23:26:42.388529+00:00",
        "meta_object_name": "GPS BIIRM-2 (PRN 31)",
        "meta_object_id": "2006-042A",
        "meta_epoch": "2025-12-26T12:05:34.202112",
        "meta_mean_motion": 2.00553566,
        "meta_eccentricity": 0.01072697,
        "meta_inclination": 54.6956,
        "meta_ra_of_asc_node": 158.1947,
        "meta_arg_of_pericenter": 52.2681,
        "meta_mean_anomaly": 319.984,
        "meta_ephemeris_type": 0,
        "meta_classification_type": "U",
        "meta_norad_cat_id": 29486,
        "meta_element_set_no": 999,
        "meta_rev_at_epoch": 14093,
        "meta_bstar": 0,
        "meta_mean_motion_dot": 1.08e-06,
        "meta_mean_motion_ddot": 0,
        "tle_line1": "1 29486U 06042A   25360.50386808  .00000108  00000+0  00000+0 0  9992",
        "tle_line2": "2 29486  54.6956 158.1947 0107269  52.2681 319.9840  2.00553566140933"
      },
      "geometry": {
        "type": "Point",
        "coordinates": [
          153.94798387641964,
          -5.928426327348822
        ]
      }
    },
    {
      "type": "Feature",
      "properties": {
        "norad_id": 29601,
        "name": "GPS BIIRM-3 (PRN 12)",
        "group": "gps-ops",
        "lat": 40.049290010866564,
        "lon": -103.03240487331905,
        "alt_km": 19986.089910829083,
        "timestamp": "2025-12-26T23:26:42.388540+00:00",
        "meta_object_name": "GPS BIIRM-3 (PRN 12)",
        "meta_object_id": "2006-052A",
        "meta_epoch": "2025-12-25T21:48:25.793568",
        "meta_mean_motion": 2.00574428,
        "meta_eccentricity": 0.00879901,
        "meta_inclination": 54.968,
        "meta_ra_of_asc_node": 220.8755,
        "meta_arg_of_pericenter": 87.5984,
        "meta_mean_anomaly": 273.4866,
        "meta_ephemeris_type": 0,
        "meta_classification_type": "U",
        "meta_norad_cat_id": 29601,
        "meta_element_set_no": 999,
        "meta_rev_at_epoch": 13993,
        "meta_bstar": 0,
        "meta_mean_motion_dot": 7.2e-07,
        "meta_mean_motion_ddot": 0,
        "tle_line1": "1 29601U 06052A   25359.90863187  .00000072  00000+0  00000+0 0  9994",
        "tle_line2": "2 29601  54.9680 220.8755 0087990  87.5984 273.4866  2.00574428139938"
      },
      "geometry": {
        "type": "Point",
        "coordinates": [
          -103.03240487331905,
          40.049290010866564
        ]
      }
    },
    {
      "type": "Feature",
      "properties": {
        "norad_id": 32260,
        "name": "GPS BIIRM-4 (PRN 15)",
        "group": "gps-ops",
        "lat": -11.10225723695381,
        "lon": -84.62012130835947,
        "alt_km": 20314.38141670579,
        "timestamp": "2025-12-26T23:26:42.388551+00:00",
        "meta_object_name": "GPS BIIRM-4 (PRN 15)",
        "meta_object_id": "2007-047A",
        "meta_epoch": "2025-12-23T05:22:00.882048",
        "meta_mean_motion": 2.00564099,
        "meta_eccentricity": 0.01640403,
        "meta_inclination": 53.9621,
        "meta_ra_of_asc_node": 87.3254,
        "meta_arg_of_pericenter": 85.3777,
        "meta_mean_anomaly": 276.5133,
        "meta_ephemeris_type": 0,
        "meta_classification_type": "U",
        "meta_norad_cat_id": 32260,
        "meta_element_set_no": 999,
        "meta_rev_at_epoch": 13328,
        "meta_bstar": 0,
        "meta_mean_motion_dot": -6e-08,
        "meta_mean_motion_ddot": 0,
        "tle_line1": "1 32260U 07047A   25357.22362132 -.00000006  00000+0  00000+0 0  9999",
        "tle_line2": "2 32260  53.9621  87.3254 0164040  85.3777 276.5133  2.00564099133281"
      },
      "geometry": {
        "type": "Point",
        "coordinates": [
          -84.62012130835947,
          -11.10225723695381
        ]
      }
    },
    {
      "type": "Feature",
      "properties": {
        "norad_id": 32384,
        "name": "GPS BIIRM-5 (PRN 29)",
        "group": "gps-ops",
        "lat": -31.050387080592074,
        "lon": -103.68044730992007,
        "alt_km": 20265.25739926156,
        "timestamp": "2025-12-26T23:26:42.388562+00:00",
        "meta_object_name": "GPS BIIRM-5 (PRN 29)",
        "meta_object_id": "2007-062A",
        "meta_epoch": "2025-12-26T06:34:08.123232",
        "meta_mean_motion": 2.00549336,
        "meta_eccentricity": 0.00314087,
        "meta_inclination": 55.1705,
        "meta_ra_of_asc_node": 281.103,
        "meta_arg_of_pericenter": 162.2528,
        "meta_mean_anomaly": 11.0381,
        "meta_ephemeris_type": 0,
        "meta_classification_type": "U",
        "meta_norad_cat_id": 32384,
        "meta_element_set_no": 999,
        "meta_rev_at_epoch": 13204,
        "meta_bstar": 0,
        "meta_mean_motion_dot": -2.8e-07,
        "meta_mean_motion_ddot": 0,
        "tle_line1": "1 32384U 07062A   25360.27370513 -.00000028  00000+0  00000+0 0  9998",
        "tle_line2": "2 32384  55.1705 281.1030 0031408 162.2528  11.0381  2.00549336132048"
      },
      "geometry": {
        "type": "Point",
        "coordinates": [
          -103.68044730992007,
          -31.050387080592074
        ]
      }
    },
    {
      "type": "Feature",
      "properties": {
        "norad_id": 32711,
        "name": "GPS BIIRM-6 (PRN 07)",
        "group": "gps-ops",
        "lat": -47.86153929967587,
        "lon": 28.930639069354452,
        "alt_km": 19648.356931031514,
        "timestamp": "2025-12-26T23:26:42.388572+00:00",
        "meta_object_name": "GPS BIIRM-6 (PRN 07)",
        "meta_object_id": "2008-012A",
        "meta_epoch": "2025-12-26T15:12:37.836000",
        "meta_mean_motion": 2.00566158,
        "meta_eccentricity": 0.02030663,
        "meta_inclination": 54.4786,
        "meta_ra_of_asc_node": 156.8183,
        "meta_arg_of_pericenter": 245.1156,
        "meta_mean_anomaly": 112.7524,
        "meta_ephemeris_type": 0,
        "meta_classification_type": "U",
        "meta_norad_cat_id": 32711,
        "meta_element_set_no": 999,
        "meta_rev_at_epoch": 13029,
        "meta_bstar": 0,
        "meta_mean_motion_dot": 1.07e-06,
        "meta_mean_motion_ddot": 0,
        "tle_line1": "1 32711U 08012A   25360.63377125  .00000107  00000+0  00000+0 0  9991",
        "tle_line2": "2 32711  54.4786 156.8183 0203066 245.1156 112.7524  2.00566158130293"
      },
      "geometry": {
        "type": "Point",
        "coordinates": [
          28.930639069354452,
          -47.86153929967587
        ]
      }
    },
    {
      "type": "Feature",
      "properties": {
        "norad_id": 35752,
        "name": "GPS BIIRM-8 (PRN 05)",
        "group": "gps-ops",
        "lat": -55.81981083483026,
        "lon": -63.98930738139096,
        "alt_km": 20324.89844250897,
        "timestamp": "2025-12-26T23:26:42.388583+00:00",
        "meta_object_name": "GPS BIIRM-8 (PRN 05)",
        "meta_object_id": "2009-043A",
        "meta_epoch": "2025-12-26T02:26:22.079616",
        "meta_mean_motion": 2.00564782,
        "meta_eccentricity": 0.00515557,
        "meta_inclination": 56.1002,
        "meta_ra_of_asc_node": 34.2563,
        "meta_arg_of_pericenter": 81.6915,
        "meta_mean_anomaly": 271.8027,
        "meta_ephemeris_type": 0,
        "meta_classification_type": "U",
        "meta_norad_cat_id": 35752,
        "meta_element_set_no": 999,
        "meta_rev_at_epoch": 11988,
        "meta_bstar": 0,
        "meta_mean_motion_dot": -5.1e-07,
        "meta_mean_motion_ddot": 0,
        "tle_line1": "1 35752U 09043A   25360.10164444 -.00000051  00000+0  00000+0 0  9993",
        "tle_line2": "2 35752  56.1002  34.2563 0051555  81.6915 271.8027  2.00564782119880"
      },
      "geometry": {
        "type": "Point",
        "coordinates": [
          -63.98930738139096,
          -55.81981083483026
        ]
      }
    },
    {
      "type": "Feature",
      "properties": {
        "norad_id": 36585,
        "name": "GPS BIIF-1  (PRN 25)",
        "group": "gps-ops",
        "lat": 17.95572620043985,
        "lon": -131.015412942222,
        "alt_km": 19932.483882738456,
        "timestamp": "2025-12-26T23:26:42.388594+00:00",
        "meta_object_name": "GPS BIIF-1  (PRN 25)",
        "meta_object_id": "2010-022A",
        "meta_epoch": "2025-12-26T01:43:04.882656",
        "meta_mean_motion": 2.00553834,
        "meta_eccentricity": 0.01266071,
        "meta_inclination": 54.2982,
        "meta_ra_of_asc_node": 215.5361,
        "meta_arg_of_pericenter": 65.2423,
        "meta_mean_anomaly": 24.4831,
        "meta_ephemeris_type": 0,
        "meta_classification_type": "U",
        "meta_norad_cat_id": 36585,
        "meta_element_set_no": 999,
        "meta_rev_at_epoch": 11412,
        "meta_bstar": 0,
        "meta_mean_motion_dot": 8.1e-07,
        "meta_mean_motion_ddot": 0,
        "tle_line1": "1 36585U 10022A   25360.07158429  .00000081  00000+0  00000+0 0  9991",
        "tle_line2": "2 36585  54.2982 215.5361 0126607  65.2423  24.4831  2.00553834114127"
      },
      "geometry": {
        "type": "Point",
        "coordinates": [
          -131.015412942222,
          17.95572620043985
        ]
      }
    }
  ]
}